[{"OBJECT_NAME":"STARLINK-5790","OBJECT_ID":"2023-042BC","EPOCH":"2026-03-09T07:01:22.727424","MEAN_MOTION":15.02531395,"ECCENTRICITY":0.00012555,"INCLINATION":43.005,"RA_OF_ASC_NODE":44.9882,"ARG_OF_PERICENTER":272.4301,"MEAN_ANOMALY":87.6398,"EPHEMERIS_TYPE":0,"CLASSIFICATION_TYPE":"U","NORAD_CAT_ID":56036,"ELEMENT_SET_NO":999,"REV_AT_EPOCH":16300,"BSTAR":6.860817e-6,"MEAN_MOTION_DOT":-1.11e-6,"MEAN_MOTION_DDOT":0},{"OBJECT_NAME":"OBJECT D","OBJECT_ID":"2025-313D","EPOCH":"2026-03-09T21:56:57.808608","MEAN_MOTION":14.89111186,"ECCENTRICITY":0.01485836,"INCLINATION":97.5765,"RA_OF_ASC_NODE":143.4472,"ARG_OF_PERICENTER":297.1144,"MEAN_ANOMALY":61.4984,"EPHEMERIS_TYPE":0,"CLASSIFICATION_TYPE":"U","NORAD_CAT_ID":67251,"ELEMENT_SET_NO":999,"REV_AT_EPOCH":1062,"BSTAR":0.00021863983,"MEAN_MOTION_DOT":2.471e-5,"MEAN_MOTION_DDOT":0}]
